[{"OBJECT_NAME":"KUIPER-00149","OBJECT_ID":"2025-228X","EPOCH":"2026-03-09T21:19:04.016352","MEAN_MOTION":14.80004702,"ECCENTRICITY":0.00017534,"INCLINATION":51.9019,"RA_OF_ASC_NODE":337.2239,"ARG_OF_PERICENTER":84.5973,"MEAN_ANOMALY":275.5189,"EPHEMERIS_TYPE":0,"CLASSIFICATION_TYPE":"U","NORAD_CAT_ID":65968,"ELEMENT_SET_NO":999,"REV_AT_EPOCH":2357,"BSTAR":0.00078763897,"MEAN_MOTION_DOT":5.798e-5,"MEAN_MOTION_DDOT":0},{"OBJECT_NAME":"FENGYUN 1C DEB","OBJECT_ID":"1999-025DMB","EPOCH":"2026-03-08T16:50:03.863040","MEAN_MOTION":14.76593215,"ECCENTRICITY":0.00269678,"INCLINATION":99.4755,"RA_OF_ASC_NODE":160.6814,"ARG_OF_PERICENTER":287.9701,"MEAN_ANOMALY":71.8565,"EPHEMERIS_TYPE":0,"CLASSIFICATION_TYPE":"U","NORAD_CAT_ID":35147,"ELEMENT_SET_NO":999,"REV_AT_EPOCH":75572,"BSTAR":0.0036377191,"MEAN_MOTION_DOT":0.00025572,"MEAN_MOTION_DDOT":0}]
